[
  {
    "COMMENT": "GENERATED VIA SPACETRACK.ORG API",
    "ORIGINATOR": "18 SPCS",
    "NORAD_CAT_ID": "36508",
    "OBJECT_NAME": "CRYOSAT 2",
    "OBJECT_TYPE": "PAYLOAD",
    "CLASSIFICATION_TYPE": "U",
    "INTLDES": "10013A",
    "EPOCH": "2023-04-29 14:18:21",
    "EPOCH_MICROSECONDS": "718080",
    "MEAN_MOTION": "14.51904904",
    "ECCENTRICITY": "0.0001753",
    "INCLINATION": "92.0259",
    "RA_OF_ASC_NODE": "0.671",
    "ARG_OF_PERICENTER": "232.389",
    "MEAN_ANOMALY": "127.7158",
    "EPHEMERIS_TYPE": "0",
    "ELEMENT_SET_NO": "999",
    "REV_AT_EPOCH": "69200",
    "BSTAR": "0.000053886",
    "MEAN_MOTION_DOT": "0.0000022",
    "MEAN_MOTION_DDOT": "0",
    "FILE": "3896517",
    "TLE_LINE0": "0 CRYOSAT 2",
    "TLE_LINE1": "1 36508U 10013A   23119.59608470  .00000220  00000-0  53886-4 0  9990",
    "TLE_LINE2": "2 36508  92.0259   0.6710 0001753 232.3890 127.7158 14.51904904692003",
    "OBJECT_ID": "2010-013A",
    "OBJECT_NUMBER": "36508",
    "SEMIMAJOR_AXIS": "7097.571",
    "PERIOD": "99.180",
    "APOGEE": "720.680",
    "PERIGEE": "718.191",
    "DECAYED": "0"
  },
  {
    "COMMENT": "GENERATED VIA SPACETRACK.ORG API",
    "ORIGINATOR": "18 SPCS",
    "NORAD_CAT_ID": "36508",
    "OBJECT_NAME": "CRYOSAT 2",
    "OBJECT_TYPE": "PAYLOAD",
    "CLASSIFICATION_TYPE": "U",
    "INTLDES": "10013A",
    "EPOCH": "2023-04-30 03:32:19",
    "EPOCH_MICROSECONDS": "156416",
    "MEAN_MOTION": "14.51905213",
    "ECCENTRICITY": "0.0001804",
    "INCLINATION": "92.0258",
    "RA_OF_ASC_NODE": "0.8043",
    "ARG_OF_PERICENTER": "228.4842",
    "MEAN_ANOMALY": "131.6211",
    "EPHEMERIS_TYPE": "0",
    "ELEMENT_SET_NO": "999",
    "REV_AT_EPOCH": "69212",
    "BSTAR": "0.000052406",
    "MEAN_MOTION_DOT": "0.00000214",
    "MEAN_MOTION_DDOT": "0",
    "FILE": "3897071",
    "TLE_LINE0": "0 CRYOSAT 2",
    "TLE_LINE1": "1 36508U 10013A   23120.14744394  .00000214  00000-0  52406-4 0  9999",
    "TLE_LINE2": "2 36508  92.0258   0.8043 0001804 228.4842 131.6211 14.51905213692124",
    "OBJECT_ID": "2010-013A",
    "OBJECT_NUMBER": "36508",
    "SEMIMAJOR_AXIS": "7097.570",
    "PERIOD": "99.180",
    "APOGEE": "720.715",
    "PERIGEE": "718.154",
    "DECAYED": "0"
  },
  {
    "COMMENT": "GENERATED VIA SPACETRACK.ORG API",
    "ORIGINATOR": "18 SPCS",
    "NORAD_CAT_ID": "36508",
    "OBJECT_NAME": "CRYOSAT 2",
    "OBJECT_TYPE": "PAYLOAD",
    "CLASSIFICATION_TYPE": "U",
    "INTLDES": "10013A",
    "EPOCH": "2023-04-30 15:07:01",
    "EPOCH_MICROSECONDS": "909344",
    "MEAN_MOTION": "14.51905445",
    "ECCENTRICITY": "0.000185",
    "INCLINATION": "92.0257",
    "RA_OF_ASC_NODE": "0.921",
    "ARG_OF_PERICENTER": "225.3143",
    "MEAN_ANOMALY": "134.7913",
    "EPHEMERIS_TYPE": "0",
    "ELEMENT_SET_NO": "999",
    "REV_AT_EPOCH": "69215",
    "BSTAR": "0.000050456",
    "MEAN_MOTION_DOT": "0.00000206",
    "MEAN_MOTION_DDOT": "0",
    "FILE": "3897442",
    "TLE_LINE0": "0 CRYOSAT 2",
    "TLE_LINE1": "1 36508U 10013A   23120.62988321  .00000206  00000-0  50456-4 0  9996",
    "TLE_LINE2": "2 36508  92.0257   0.9210 0001850 225.3143 134.7913 14.51905445692154",
    "OBJECT_ID": "2010-013A",
    "OBJECT_NUMBER": "36508",
    "SEMIMAJOR_AXIS": "7097.569",
    "PERIOD": "99.180",
    "APOGEE": "720.747",
    "PERIGEE": "718.121",
    "DECAYED": "0"
  },
  {
    "COMMENT": "GENERATED VIA SPACETRACK.ORG API",
    "ORIGINATOR": "18 SPCS",
    "NORAD_CAT_ID": "36508",
    "OBJECT_NAME": "CRYOSAT 2",
    "OBJECT_TYPE": "PAYLOAD",
    "CLASSIFICATION_TYPE": "U",
    "INTLDES": "10013A",
    "EPOCH": "2023-05-01 06:00:14",
    "EPOCH_MICROSECONDS": "12352",
    "MEAN_MOTION": "14.51905772",
    "ECCENTRICITY": "0.0001916",
    "INCLINATION": "92.0257",
    "RA_OF_ASC_NODE": "1.0709",
    "ARG_OF_PERICENTER": "221.3217",
    "MEAN_ANOMALY": "138.7846",
    "EPHEMERIS_TYPE": "0",
    "ELEMENT_SET_NO": "999",
    "REV_AT_EPOCH": "69228",
    "BSTAR": "0.000050649",
    "MEAN_MOTION_DOT": "0.00000207",
    "MEAN_MOTION_DDOT": "0",
    "FILE": "3897956",
    "TLE_LINE0": "0 CRYOSAT 2",
    "TLE_LINE1": "1 36508U 10013A   23121.25016218  .00000207  00000-0  50649-4 0  9998",
    "TLE_LINE2": "2 36508  92.0257   1.0709 0001916 221.3217 138.7846 14.51905772692286",
    "OBJECT_ID": "2010-013A",
    "OBJECT_NUMBER": "36508",
    "SEMIMAJOR_AXIS": "7097.568",
    "PERIOD": "99.180",
    "APOGEE": "720.793",
    "PERIGEE": "718.073",
    "DECAYED": "0"
  },
  {
    "COMMENT": "GENERATED VIA SPACETRACK.ORG API",
    "ORIGINATOR": "18 SPCS",
    "NORAD_CAT_ID": "36508",
    "OBJECT_NAME": "CRYOSAT 2",
    "OBJECT_TYPE": "PAYLOAD",
    "CLASSIFICATION_TYPE": "U",
    "INTLDES": "10013A",
    "EPOCH": "2023-05-01 14:16:27",
    "EPOCH_MICROSECONDS": "408288",
    "MEAN_MOTION": "14.51905834",
    "ECCENTRICITY": "0.0001957",
    "INCLINATION": "92.0256",
    "RA_OF_ASC_NODE": "1.1543",
    "ARG_OF_PERICENTER": "219.171",
    "MEAN_ANOMALY": "140.9356",
    "EPHEMERIS_TYPE": "0",
    "ELEMENT_SET_NO": "999",
    "REV_AT_EPOCH": "69229",
    "BSTAR": "0.000046443",
    "MEAN_MOTION_DOT": "0.0000019",
    "MEAN_MOTION_DDOT": "0",
    "FILE": "3898258",
    "TLE_LINE0": "0 CRYOSAT 2",
    "TLE_LINE1": "1 36508U 10013A   23121.59476167  .00000190  00000-0  46443-4 0  9996",
    "TLE_LINE2": "2 36508  92.0256   1.1543 0001957 219.1710 140.9356 14.51905834692291",
    "OBJECT_ID": "2010-013A",
    "OBJECT_NUMBER": "36508",
    "SEMIMAJOR_AXIS": "7097.568",
    "PERIOD": "99.180",
    "APOGEE": "720.822",
    "PERIGEE": "718.044",
    "DECAYED": "0"
  },
  {
    "COMMENT": "GENERATED VIA SPACETRACK.ORG API",
    "ORIGINATOR": "18 SPCS",
    "NORAD_CAT_ID": "36508",
    "OBJECT_NAME": "CRYOSAT 2",
    "OBJECT_TYPE": "PAYLOAD",
    "CLASSIFICATION_TYPE": "U",
    "INTLDES": "10013A",
    "EPOCH": "2023-05-01 20:53:26",
    "EPOCH_MICROSECONDS": "117088",
    "MEAN_MOTION": "14.51905957",
    "ECCENTRICITY": "0.0001989",
    "INCLINATION": "92.0256",
    "RA_OF_ASC_NODE": "1.2209",
    "ARG_OF_PERICENTER": "217.4508",
    "MEAN_ANOMALY": "142.6561",
    "EPHEMERIS_TYPE": "0",
    "ELEMENT_SET_NO": "999",
    "REV_AT_EPOCH": "69233",
    "BSTAR": "0.000046673",
    "MEAN_MOTION_DOT": "0.00000191",
    "MEAN_MOTION_DDOT": "0",
    "FILE": "3898518",
    "TLE_LINE0": "0 CRYOSAT 2",
    "TLE_LINE1": "1 36508U 10013A   23121.87044117  .00000191  00000-0  46673-4 0  9999",
    "TLE_LINE2": "2 36508  92.0256   1.2209 0001989 217.4508 142.6561 14.51905957692330",
    "OBJECT_ID": "2010-013A",
    "OBJECT_NUMBER": "36508",
    "SEMIMAJOR_AXIS": "7097.567",
    "PERIOD": "99.180",
    "APOGEE": "720.844",
    "PERIGEE": "718.021",
    "DECAYED": "0"
  },
  {
    "COMMENT": "GENERATED VIA SPACETRACK.ORG API",
    "ORIGINATOR": "18 SPCS",
    "NORAD_CAT_ID": "36508",
    "OBJECT_NAME": "CRYOSAT 2",
    "OBJECT_TYPE": "PAYLOAD",
    "CLASSIFICATION_TYPE": "U",
    "INTLDES": "10013A",
    "EPOCH": "2023-05-02 06:48:54",
    "EPOCH_MICROSECONDS": "175104",
    "MEAN_MOTION": "14.51906247",
    "ECCENTRICITY": "0.0002034",
    "INCLINATION": "92.0255",
    "RA_OF_ASC_NODE": "1.3209",
    "ARG_OF_PERICENTER": "214.9714",
    "MEAN_ANOMALY": "145.136",
    "EPHEMERIS_TYPE": "0",
    "ELEMENT_SET_NO": "999",
    "REV_AT_EPOCH": "69243",
    "BSTAR": "0.000051468",
    "MEAN_MOTION_DOT": "0.0000021",
    "MEAN_MOTION_DDOT": "0",
    "FILE": "3898781",
    "TLE_LINE0": "0 CRYOSAT 2",
    "TLE_LINE1": "1 36508U 10013A   23122.28396036  .00000210  00000-0  51468-4 0  9995",
    "TLE_LINE2": "2 36508  92.0255   1.3209 0002034 214.9714 145.1360 14.51906247692432",
    "OBJECT_ID": "2010-013A",
    "OBJECT_NUMBER": "36508",
    "SEMIMAJOR_AXIS": "7097.566",
    "PERIOD": "99.180",
    "APOGEE": "720.875",
    "PERIGEE": "717.988",
    "DECAYED": "0"
  },
  {
    "COMMENT": "GENERATED VIA SPACETRACK.ORG API",
    "ORIGINATOR": "18 SPCS",
    "NORAD_CAT_ID": "36508",
    "OBJECT_NAME": "CRYOSAT 2",
    "OBJECT_TYPE": "PAYLOAD",
    "CLASSIFICATION_TYPE": "U",
    "INTLDES": "10013A",
    "EPOCH": "2023-05-02 15:05:07",
    "EPOCH_MICROSECONDS": "557216",
    "MEAN_MOTION": "14.51906369",
    "ECCENTRICITY": "0.0002074",
    "INCLINATION": "92.0254",
    "RA_OF_ASC_NODE": "1.4042",
    "ARG_OF_PERICENTER": "213.0253",
    "MEAN_ANOMALY": "147.0825",
    "EPHEMERIS_TYPE": "0",
    "ELEMENT_SET_NO": "999",
    "REV_AT_EPOCH": "69244",
    "BSTAR": "0.000049771",
    "MEAN_MOTION_DOT": "0.00000203",
    "MEAN_MOTION_DDOT": "0",
    "FILE": "3899068",
    "TLE_LINE0": "0 CRYOSAT 2",
    "TLE_LINE1": "1 36508U 10013A   23122.62855969  .00000203  00000-0  49771-4 0  9994",
    "TLE_LINE2": "2 36508  92.0254   1.4042 0002074 213.0253 147.0825 14.51906369692442",
    "OBJECT_ID": "2010-013A",
    "OBJECT_NUMBER": "36508",
    "SEMIMAJOR_AXIS": "7097.566",
    "PERIOD": "99.180",
    "APOGEE": "720.903",
    "PERIGEE": "717.959",
    "DECAYED": "0"
  },
  {
    "COMMENT": "GENERATED VIA SPACETRACK.ORG API",
    "ORIGINATOR": "18 SPCS",
    "NORAD_CAT_ID": "36508",
    "OBJECT_NAME": "CRYOSAT 2",
    "OBJECT_TYPE": "PAYLOAD",
    "CLASSIFICATION_TYPE": "U",
    "INTLDES": "10013A",
    "EPOCH": "2023-05-02 21:42:06",
    "EPOCH_MICROSECONDS": "261696",
    "MEAN_MOTION": "14.51906448",
    "ECCENTRICITY": "0.0002109",
    "INCLINATION": "92.0254",
    "RA_OF_ASC_NODE": "1.4708",
    "ARG_OF_PERICENTER": "211.3638",
    "MEAN_ANOMALY": "148.7443",
    "EPHEMERIS_TYPE": "0",
    "ELEMENT_SET_NO": "999",
    "REV_AT_EPOCH": "69248",
    "BSTAR": "0.000048101",
    "MEAN_MOTION_DOT": "0.00000197",
    "MEAN_MOTION_DDOT": "0",
    "FILE": "3899277",
    "TLE_LINE0": "0 CRYOSAT 2",
    "TLE_LINE1": "1 36508U 10013A   23122.90423914  .00000197  00000-0  48101-4 0  9994",
    "TLE_LINE2": "2 36508  92.0254   1.4708 0002109 211.3638 148.7443 14.51906448692484",
    "OBJECT_ID": "2010-013A",
    "OBJECT_NUMBER": "36508",
    "SEMIMAJOR_AXIS": "7097.566",
    "PERIOD": "99.180",
    "APOGEE": "720.928",
    "PERIGEE": "717.934",
    "DECAYED": "0"
  }
]